<?xml version="1.0" encoding="UTF-8"?>
<kml xmlns="http://www.opengis.net/kml/2.2"><Document><name>survey</name>
<Placemark><name>Plot A</name><description>demo plot</description>
<Polygon><outerBoundaryIs><LinearRing><coordinates>
78.40,17.40,0 78.41,17.40,0 78.41,17.41,0 78.40,17.41,0 78.40,17.40,0
</coordinates></LinearRing></outerBoundaryIs></Polygon></Placemark>
<Placemark><name>Road</name><LineString><coordinates>78.40,17.40,0 78.42,17.40,0</coordinates></LineString></Placemark>
<Placemark><name>Pin</name><Point><coordinates>78.4,17.4,0</coordinates></Point></Placemark>
<Placemark><name>Mixed</name><MultiGeometry>
<Point><coordinates>78.4,17.4,0</coordinates></Point>
<LineString><coordinates>78.40,17.40,0 78.42,17.40,0</coordinates></LineString>
</MultiGeometry></Placemark>
</Document></kml>
